NORAD_CAT_ID,OBJECT_NAME,OBJECT_TYPE,EPOCH,MEAN_MOTION,ECCENTRICITY,INCLINATION,RA_OF_ASC_NODE,ARG_OF_PERICENTER,MEAN_ANOMALY,BSTAR,MEAN_MOTION_DOT,MEAN_MOTION_DDOT,TLE_LINE0,TLE_LINE1,TLE_LINE2,SEMIMAJOR_AXIS,PERIOD,APOGEE,PERIGEE,DECAYED
52458.0,STARLINK-3898,PAYLOAD,2023-12-18 15:41:24,15.08857515,0.0001269,53.2164,114.4895,95.0217,265.092,0.00063504,9.838e-05,0.0,0 STARLINK-3898,1 52458U 22049H   23352.65375553  .00009838  00000-0  63504-3 0  9994,2 52458  53.2164 114.4895 0001269  95.0217 265.0920 15.08857515 89681,6917.827,95.436,540.57,538.814,0.0
52458.0,STARLINK-3898,PAYLOAD,2023-12-19 13:56:48,15.08844831,0.0001159,53.2157,110.329,90.3415,269.771,0.00013372,1.841e-05,0.0,0 STARLINK-3898,1 52458U 22049H   23353.58111765  .00001841  00000-0  13372-3 0  9994,2 52458  53.2157 110.3290 0001159  90.3415 269.7710 15.08844831 89666,6917.866,95.437,540.532,538.929,0.0
52458.0,STARLINK-3898,PAYLOAD,2023-12-19 15:32:11,15.08844619,0.0001203,53.2155,110.0312,82.2026,277.9102,0.00015191,2.131e-05,0.0,0 STARLINK-3898,1 52458U 22049H   23353.64735817  .00002131  00000-0  15191-3 0  9995,2 52458  53.2155 110.0312 0001203  82.2026 277.9102 15.08844619 89833,6917.866,95.437,540.563,538.899,0.0
52458.0,STARLINK-3898,PAYLOAD,2023-12-20 12:12:13,15.08828959,0.0001714,53.2161,106.162,63.0653,297.0514,0.00031328,4.7e-05,0.0,0 STARLINK-3898,1 52458U 22049H   23354.50848866  .00004700  00000-0  31328-3 0  9994,2 52458  53.2161 106.1620 0001714  63.0653 297.0514 15.08828959 89961,6917.914,95.438,540.965,538.593,0.0
52458.0,STARLINK-3898,PAYLOAD,2023-12-20 15:22:59,15.08838373,9.58e-05,53.2155,105.5724,88.7792,271.331,0.0006752,0.00010474,0.0,0 STARLINK-3898,1 52458U 22049H   23354.64096727  .00010474  00000-0  67520-3 0  9998,2 52458  53.2155 105.5724 0000958  88.7792 271.3310 15.08838373 89824,6917.885,95.438,540.413,539.088,0.0
52458.0,STARLINK-3898,PAYLOAD,2023-12-21 12:03:01,15.08839989,0.000214,53.2155,101.7053,48.2784,311.8391,0.00041393,6.306e-05,0.0,0 STARLINK-3898,1 52458U 22049H   23355.50209588  .00006306  00000-0  41393-3 0  9994,2 52458  53.2155 101.7053 0002140  48.2784 311.8391 15.08839989 90111,6917.88,95.438,541.226,538.265,0.0
52458.0,STARLINK-3898,PAYLOAD,2023-12-21 13:38:24,15.08840353,0.0002233,53.2158,101.4086,47.3241,312.7938,0.00037339,5.659e-05,0.0,0 STARLINK-3898,1 52458U 22049H   23355.56833603  .00005659  00000-0  37339-3 0  9996,2 52458  53.2158 101.4086 0002233  47.3241 312.7938 15.08840353 89963,6917.879,95.438,541.289,538.2,0.0
52458.0,STARLINK-3898,PAYLOAD,2023-12-22 13:29:10,15.08850661,0.0001457,53.216,96.9538,89.198,270.9179,0.0003367,5.076e-05,0.0,0 STARLINK-3898,1 52458U 22049H   23356.56192920  .00005076  00000-0  33670-3 0  9994,2 52458  53.2160  96.9538 0001457  89.1980 270.9179 15.08850661 90111,6917.848,95.437,540.721,538.705,0.0
52458.0,STARLINK-3898,PAYLOAD,2023-12-23 11:44:34,15.08843807,0.0001361,53.2163,92.7824,96.6022,263.5125,0.00013467,1.856e-05,0.0,0 STARLINK-3898,1 52458U 22049H   23357.48928984  .00001856  00000-0  13467-3 0  9997,2 52458  53.2163  92.7824 0001361  96.6022 263.5125 15.08843807 90416,6917.869,95.437,540.675,538.792,0.0
52458.0,STARLINK-3898,PAYLOAD,2023-12-23 13:19:57,15.08847012,0.0001383,53.2164,92.4844,99.0369,261.0779,0.00019796,2.865e-05,0.0,0 STARLINK-3898,1 52458U 22049H   23357.55552858  .00002865  00000-0  19796-3 0  9990,2 52458  53.2164  92.4844 0001383  99.0369 261.0779 15.08847012 90264,6917.859,95.437,540.681,538.767,0.0
52458.0,STARLINK-3898,PAYLOAD,2023-12-24 11:35:22,15.08828154,0.0001396,53.2167,88.3209,91.9516,268.1636,-6.9805e-05,-1.398e-05,0.0,0 STARLINK-3898,1 52458U 22049H   23358.48290139 -.00001398  00000-0 -69805-4 0  9993,2 52458  53.2167  88.3209 0001396  91.9516 268.1636 15.08828154 90564,6917.917,95.438,540.747,538.816,0.0
52458.0,STARLINK-3898,PAYLOAD,2023-12-24 13:10:45,15.08829501,0.000138,53.2168,88.0235,91.1355,268.9795,-2.3406e-05,-6.6e-06,0.0,0 STARLINK-3898,1 52458U 22049H   23358.54914157 -.00000660  00000-0 -23406-4 0  9991,2 52458  53.2168  88.0235 0001380  91.1355 268.9795 15.08829501 90412,6917.912,95.438,540.732,538.823,0.0
52458.0,STARLINK-3898,PAYLOAD,2023-12-25 11:26:09,15.0886782,0.000135,53.2163,83.8644,70.0473,290.0664,0.0010489,0.00016457,0.0,0 STARLINK-3898,1 52458U 22049H   23359.47649545  .00016457  00000-0  10489-2 0  9994,2 52458  53.2163  83.8644 0001350  70.0473 290.0664 15.08867820 90718,6917.795,95.436,540.594,538.726,0.0
52458.0,STARLINK-3898,PAYLOAD,2023-12-25 16:12:17,15.08888087,0.0001348,53.2162,82.9707,84.2998,275.8148,0.001445,0.00022814,0.0,0 STARLINK-3898,1 52458U 22049H   23359.67520783  .00022814  00000-0  14450-2 0  9994,2 52458  53.2162  82.9707 0001348  84.2998 275.8148 15.08888087 90742,6917.733,95.435,540.531,538.666,0.0
52458.0,STARLINK-3898,PAYLOAD,2023-12-26 11:16:56,15.08843541,0.0001331,53.2163,79.4033,96.6392,263.4752,0.0013574,0.00021383,0.0,0 STARLINK-3898,1 52458U 22049H   23360.47009302  .00021383  00000-0  13574-2 0  9999,2 52458  53.2163  79.4033 0001331  96.6392 263.4752 15.08843541 90866,6917.87,95.437,540.655,538.814,0.0
52458.0,STARLINK-3898,PAYLOAD,2023-12-26 12:52:19,15.08845904,0.000137,53.2163,79.1063,91.6639,268.451,0.0015553,0.00024555,0.0,0 STARLINK-3898,1 52458U 22049H   23360.53633322  .00024555  00000-0  15553-2 0  9994,2 52458  53.2163  79.1063 0001370  91.6639 268.4510 15.08845904 90714,6917.862,95.437,540.675,538.78,0.0
52458.0,STARLINK-3898,PAYLOAD,2023-12-27 11:07:43,15.08844885,0.0001373,53.2161,74.9434,79.4894,280.6253,0.00045621,6.981e-05,0.0,0 STARLINK-3898,1 52458U 22049H   23361.46369494  .00006981  00000-0  45621-3 0  9996,2 52458  53.2161  74.9434 0001373  79.4894 280.6253 15.08844885 91018,6917.865,95.437,540.68,538.781,0.0
52458.0,STARLINK-3898,PAYLOAD,2023-12-27 14:18:29,15.08852338,0.0001402,53.2161,74.3483,82.1343,277.9808,0.0006475,0.00010035,0.0,0 STARLINK-3898,1 52458U 22049H   23361.59617303  .00010035  00000-0  64750-3 0  9994,2 52458  53.2161  74.3483 0001402  82.1343 277.9808 15.08852338 90879,6917.843,95.437,540.678,538.738,0.0
52458.0,STARLINK-3898,PAYLOAD,2023-12-28 10:58:30,15.08843595,0.0001508,53.2161,70.4824,95.2977,264.8187,0.00021521,3.139e-05,0.0,0 STARLINK-3898,1 52458U 22049H   23362.45729445  .00003139  00000-0  21521-3 0  9997,2 52458  53.2161  70.4824 0001508  95.2977 264.8187 15.08843595 91163,6917.869,95.437,540.778,538.691,0.0
52458.0,STARLINK-3898,PAYLOAD,2023-12-28 14:09:16,15.08851457,0.0001492,53.2162,69.8874,84.0275,276.0887,0.00046613,7.141e-05,0.0,0 STARLINK-3898,1 52458U 22049H   23362.58977330  .00007141  00000-0  46613-3 0  9995,2 52458  53.2162  69.8874 0001492  84.0275 276.0887 15.08851457 91023,6917.845,95.437,540.743,538.678,0.0
52458.0,STARLINK-3898,PAYLOAD,2023-12-29 04:27:45,15.08830589,0.0001245,53.2166,67.21,99.9755,260.1378,-1.7696e-05,-5.69e-06,0.0,0 STARLINK-3898,1 52458U 22049H   23363.18593966 -.00000569  00000-0 -17696-4 0  9990,2 52458  53.2166  67.2100 0001245  99.9755 260.1378 15.08830589 91274,6917.909,95.438,540.635,538.913,0.0
52458.0,STARLINK-3898,PAYLOAD,2023-12-29 10:49:17,15.08830109,0.0001484,53.2161,66.0207,105.755,254.3606,-2.038e-05,-6.12e-06,0.0,0 STARLINK-3898,1 52458U 22049H   23363.45090194 -.00000612  00000-0 -20380-4 0  9998,2 52458  53.2161  66.0207 0001484 105.7550 254.3606 15.08830109 91152,6917.911,95.438,540.802,538.749,0.0
52458.0,STARLINK-3898,PAYLOAD,2023-12-30 04:18:32,15.08845177,0.0001521,53.2164,62.7511,79.6034,280.5129,0.00029956,4.483e-05,0.0,0 STARLINK-3898,1 52458U 22049H   23364.17954292  .00004483  00000-0  29956-3 0  9991,2 52458  53.2164  62.7511 0001521  79.6034 280.5129 15.08845177 91426,6917.865,95.437,540.782,538.677,0.0
52458.0,STARLINK-3898,PAYLOAD,2023-12-30 13:50:51,15.08859408,0.0001513,53.2162,60.9662,91.3271,268.7895,0.00082909,0.00012939,0.0,0 STARLINK-3898,1 52458U 22049H   23364.57697939  .00012939  00000-0  82909-3 0  9999,2 52458  53.2162  60.9662 0001513  91.3271 268.7895 15.08859408 91325,6917.821,95.436,540.733,538.639,0.0
52458.0,STARLINK-3898,PAYLOAD,2023-12-31 04:09:19,15.08837643,9.08e-05,53.2182,58.2931,61.7138,298.3946,-1.6636e-05,-5.52e-06,0.0,0 STARLINK-3898,1 52458U 22049H   23365.17314239 -.00000552  00000-0 -16636-4 0  9990,2 52458  53.2182  58.2931 0000908  61.7138 298.3946 15.08837643 91576,6917.888,95.438,540.381,539.124,0.0
52458.0,STARLINK-3898,PAYLOAD,2023-12-31 13:41:38,15.08849625,0.0001469,53.2163,56.5058,101.7696,258.3461,0.00047913,7.348e-05,0.0,0 STARLINK-3898,1 52458U 22049H   23365.57057915  .00007348  00000-0  47913-3 0  9998,2 52458  53.2163  56.5058 0001469 101.7696 258.3461 15.08849625 91631,6917.851,95.437,540.732,538.7,0.0
52458.0,STARLINK-3898,PAYLOAD,2024-01-01 08:46:15,15.0884065,0.0001518,53.2156,52.9359,101.1104,259.0059,0.00023879,3.514e-05,0.0,0 STARLINK-3898,1 52458U 22049H   24001.36546239  .00003514  00000-0  23879-3 0  9991,2 52458  53.2156  52.9359 0001518 101.1104 259.0059 15.08840650 91753,6917.878,95.438,540.794,538.693,0.0
52458.0,STARLINK-3898,PAYLOAD,2024-01-01 13:32:25,15.08843838,0.0001602,53.2157,52.0436,107.9921,252.1246,0.00035794,5.414e-05,0.0,0 STARLINK-3898,1 52458U 22049H   24001.56418157  .00005414  00000-0  35794-3 0  9990,2 52458  53.2157  52.0436 0001602 107.9921 252.1246 15.08843838 91625,6917.869,95.437,540.842,538.625,0.0
52458.0,STARLINK-3898,PAYLOAD,2024-01-02 08:37:02,15.08841727,0.0001936,53.2166,48.4761,126.4739,233.6431,0.0001566,2.205e-05,0.0,0 STARLINK-3898,1 52458U 22049H   24002.35906109  .00002205  00000-0  15660-3 0  9992,2 52458  53.2166  48.4761 0001936 126.4739 233.6431 15.08841727 91746,6917.875,95.437,541.079,538.401,0.0
52458.0,STARLINK-3898,PAYLOAD,2024-01-03 02:06:17,15.08839776,0.000126,53.2165,45.2062,90.5224,269.5912,0.00011768,1.585e-05,0.0,0 STARLINK-3898,1 52458U 22049H   24003.08770429  .00001585  00000-0  11768-3 0  9992,2 52458  53.2165  45.2062 0001260  90.5224 269.5912 15.08839776 92018,6917.881,95.438,540.618,538.874,0.0
